{
    "links": {
        "self": "http://www.neowsapp.com/rest/v1/neo/3673469?api_key=iIulBulltgU6a56xZRHN4H3l9WmuAYTsLGpBGhQ2"
    },
    "id": "3673469",
    "neo_reference_id": "3673469",
    "name": "(2014 LY9)",
    "designation": "2014 LY9",
    "nasa_jpl_url": "http://ssd.jpl.nasa.gov/sbdb.cgi?sstr=3673469",
    "absolute_magnitude_h": 24.2,
    "estimated_diameter": {
        "kilometers": {
            "estimated_diameter_min": 0.0384197891,
            "estimated_diameter_max": 0.0859092601
        },
        "meters": {
            "estimated_diameter_min": 38.4197891064,
            "estimated_diameter_max": 85.9092601232
        },
        "miles": {
            "estimated_diameter_min": 0.0238729428,
            "estimated_diameter_max": 0.0533815229
        },
        "feet": {
            "estimated_diameter_min": 126.0491808919,
            "estimated_diameter_max": 281.8545369825
        }
    },
    "is_potentially_hazardous_asteroid": false,
    "close_approach_data": [
        {
            "close_approach_date": "2014-06-06",
            "close_approach_date_full": "2014-Jun-06 07:39",
            "epoch_date_close_approach": 1402040340000,
            "relative_velocity": {
                "kilometers_per_second": "6.5215468068",
                "kilometers_per_hour": "23477.5685044237",
                "miles_per_hour": "14588.0480520959"
            },
            "miss_distance": {
                "astronomical": "0.1273297545",
                "lunar": "49.5312745005",
                "kilometers": "19048260.060822915",
                "miles": "11836039.957329627"
            },
            "orbiting_body": "Earth"
        }
    ],
    "orbital_data": {
        "orbit_id": "8",
        "orbit_determination_date": "2017-04-06 08:40:10",
        "first_observation_date": "2014-06-02",
        "last_observation_date": "2014-06-19",
        "data_arc_in_days": 17,
        "observations_used": 18,
        "orbit_uncertainty": "8",
        "minimum_orbit_intersection": ".117679",
        "jupiter_tisserand_invariant": "3.445",
        "epoch_osculation": "2456813.5",
        "eccentricity": ".4976825650345446",
        "semi_major_axis": "2.25034241139464",
        "inclination": "6.730793998028347",
        "ascending_node_longitude": "256.9667875508659",
        "orbital_period": "1233.023445836179",
        "perihelion_distance": "1.130386227885733",
        "perihelion_argument": "350.6273982236419",
        "aphelion_distance": "3.370298594903547",
        "perihelion_time": "2456809.729988856933",
        "mean_anomaly": "1.100712250109509",
        "mean_motion": ".2919652511196695",
        "equinox": "J2000",
        "orbit_class": {
            "orbit_class_type": "AMO",
            "orbit_class_description": "Near-Earth asteroid orbits similar to that of 1221 Amor",
            "orbit_class_range": "1.017 AU < q (perihelion) < 1.3 AU"
        }
    },
    "is_sentry_object": false
}